[{"OBJECT_NAME":"INTELSAT 10 (IS-10)","OBJECT_ID":"2001-019A","EPOCH":"2026-03-06T19:43:16.334112","MEAN_MOTION":0.9904224,"ECCENTRICITY":0.000586,"INCLINATION":8.8314,"RA_OF_ASC_NODE":60.2951,"ARG_OF_PERICENTER":270.3003,"MEAN_ANOMALY":262.2612,"EPHEMERIS_TYPE":0,"CLASSIFICATION_TYPE":"U","NORAD_CAT_ID":26766,"ELEMENT_SET_NO":999,"REV_AT_EPOCH":4456,"BSTAR":0,"MEAN_MOTION_DOT":-2.68e-6,"MEAN_MOTION_DDOT":0},{"OBJECT_NAME":"INTELSAT 902 (IS-902)","OBJECT_ID":"2001-039A","EPOCH":"2026-03-06T10:17:41.233344","MEAN_MOTION":1.00271793,"ECCENTRICITY":0.00046123,"INCLINATION":5.8577,"RA_OF_ASC_NODE":73.0343,"ARG_OF_PERICENTER":274.1674,"MEAN_ANOMALY":281.2767,"EPHEMERIS_TYPE":0,"CLASSIFICATION_TYPE":"U","NORAD_CAT_ID":26900,"ELEMENT_SET_NO":999,"REV_AT_EPOCH":8966,"BSTAR":0,"MEAN_MOTION_DOT":-2.86e-6,"MEAN_MOTION_DDOT":0},{"OBJECT_NAME":"INTELSAT 904 (IS-904)","OBJECT_ID":"2002-007A","EPOCH":"2026-03-05T07:00:05.535936","MEAN_MOTION":1.00273205,"ECCENTRICITY":0.0006148,"INCLINATION":6.6608,"RA_OF_ASC_NODE":70.43,"ARG_OF_PERICENTER":306.2151,"MEAN_ANOMALY":219.9159,"EPHEMERIS_TYPE":0,"CLASSIFICATION_TYPE":"U","NORAD_CAT_ID":27380,"ELEMENT_SET_NO":999,"REV_AT_EPOCH":5072,"BSTAR":0,"MEAN_MOTION_DOT":-2.31e-6,"MEAN_MOTION_DDOT":0},{"OBJECT_NAME":"DIRECTV 5 (TEMPO 1)","OBJECT_ID":"2002-023A","EPOCH":"2026-03-06T13:26:00.009312","MEAN_MOTION":1.00272675,"ECCENTRICITY":0.00036539,"INCLINATION":4.6158,"RA_OF_ASC_NODE":76.5927,"ARG_OF_PERICENTER":280.5748,"MEAN_ANOMALY":258.5092,"EPHEMERIS_TYPE":0,"CLASSIFICATION_TYPE":"U","NORAD_CAT_ID":27426,"ELEMENT_SET_NO":999,"REV_AT_EPOCH":8709,"BSTAR":0,"MEAN_MOTION_DOT":-6.0e-7,"MEAN_MOTION_DDOT":0},{"OBJECT_NAME":"INTELSAT 905 (IS-905)","OBJECT_ID":"2002-027A","EPOCH":"2026-03-05T04:29:38.664384","MEAN_MOTION":1.00273968,"ECCENTRICITY":0.00031737,"INCLINATION":6.4927,"RA_OF_ASC_NODE":71.0512,"ARG_OF_PERICENTER":279.539,"MEAN_ANOMALY":102.5539,"EPHEMERIS_TYPE":0,"CLASSIFICATION_TYPE":"U","NORAD_CAT_ID":27438,"ELEMENT_SET_NO":999,"REV_AT_EPOCH":5032,"BSTAR":0,"MEAN_MOTION_DOT":8.8e-7,"MEAN_MOTION_DDOT":0},{"OBJECT_NAME":"GALAXY 3C (G-3C)","OBJECT_ID":"2002-030A","EPOCH":"2026-03-06T10:05:04.941312","MEAN_MOTION":1.00271886,"ECCENTRICITY":0.00011657,"INCLINATION":3.469,"RA_OF_ASC_NODE":79.431,"ARG_OF_PERICENTER":23.5779,"MEAN_ANOMALY":117.5619,"EPHEMERIS_TYPE":0,"CLASSIFICATION_TYPE":"U","NORAD_CAT_ID":27445,"ELEMENT_SET_NO":999,"REV_AT_EPOCH":4546,"BSTAR":0,"MEAN_MOTION_DOT":-1.56e-6,"MEAN_MOTION_DDOT":0},{"OBJECT_NAME":"INTELSAT 906 (IS-906)","OBJECT_ID":"2002-041A","EPOCH":"2026-03-06T14:15:47.734272","MEAN_MOTION":1.00273167,"ECCENTRICITY":0.00031838,"INCLINATION":5.5418,"RA_OF_ASC_NODE":74.1824,"ARG_OF_PERICENTER":261.3765,"MEAN_ANOMALY":106.8622,"EPHEMERIS_TYPE":0,"CLASSIFICATION_TYPE":"U","NORAD_CAT_ID":27513,"ELEMENT_SET_NO":999,"REV_AT_EPOCH":8600,"BSTAR":0,"MEAN_MOTION_DOT":1.0e-7,"MEAN_MOTION_DDOT":0},{"OBJECT_NAME":"GALAXY 13 (HORIZONS-1)","OBJECT_ID":"2003-044A","EPOCH":"2026-03-06T13:14:38.596704","MEAN_MOTION":1.00273538,"ECCENTRICITY":0.00021856,"INCLINATION":1.1525,"RA_OF_ASC_NODE":85.2612,"ARG_OF_PERICENTER":263.5411,"MEAN_ANOMALY":224.122,"EPHEMERIS_TYPE":0,"CLASSIFICATION_TYPE":"U","NORAD_CAT_ID":27954,"ELEMENT_SET_NO":999,"REV_AT_EPOCH":4554,"BSTAR":0,"MEAN_MOTION_DOT":1.29e-6,"MEAN_MOTION_DDOT":0},{"OBJECT_NAME":"INTELSAT 10-02","OBJECT_ID":"2004-022A","EPOCH":"2026-03-06T07:06:29.565792","MEAN_MOTION":1.00272108,"ECCENTRICITY":0.00011045,"INCLINATION":0.0174,"RA_OF_ASC_NODE":124.519,"ARG_OF_PERICENTER":267.8576,"MEAN_ANOMALY":237.2435,"EPHEMERIS_TYPE":0,"CLASSIFICATION_TYPE":"U","NORAD_CAT_ID":28358,"ELEMENT_SET_NO":999,"REV_AT_EPOCH":7952,"BSTAR":0,"MEAN_MOTION_DOT":-1.6e-7,"MEAN_MOTION_DDOT":0},{"OBJECT_NAME":"DIRECTV 8","OBJECT_ID":"2005-019A","EPOCH":"2026-03-06T13:23:30.247872","MEAN_MOTION":1.00272136,"ECCENTRICITY":0.00033199,"INCLINATION":0.0161,"RA_OF_ASC_NODE":113.6976,"ARG_OF_PERICENTER":247.1626,"MEAN_ANOMALY":245.228,"EPHEMERIS_TYPE":0,"CLASSIFICATION_TYPE":"U","NORAD_CAT_ID":28659,"ELEMENT_SET_NO":999,"REV_AT_EPOCH":7604,"BSTAR":0,"MEAN_MOTION_DOT":-3.0e-8,"MEAN_MOTION_DDOT":0},{"OBJECT_NAME":"GALAXY 28 (G-28)","OBJECT_ID":"2005-022A","EPOCH":"2026-03-06T10:24:18.098784","MEAN_MOTION":1.00271561,"ECCENTRICITY":0.00022936,"INCLINATION":3.0333,"RA_OF_ASC_NODE":80.2221,"ARG_OF_PERICENTER":267.8027,"MEAN_ANOMALY":305.1144,"EPHEMERIS_TYPE":0,"CLASSIFICATION_TYPE":"U","NORAD_CAT_ID":28702,"ELEMENT_SET_NO":999,"REV_AT_EPOCH":5094,"BSTAR":0,"MEAN_MOTION_DOT":-2.04e-6,"MEAN_MOTION_DDOT":0},{"OBJECT_NAME":"GALAXY 16 (G-16)","OBJECT_ID":"2006-023A","EPOCH":"2026-03-06T13:29:14.697888","MEAN_MOTION":1.00273168,"ECCENTRICITY":0.00026784,"INCLINATION":0.0384,"RA_OF_ASC_NODE":228.2283,"ARG_OF_PERICENTER":122.9009,"MEAN_ANOMALY":276.4445,"EPHEMERIS_TYPE":0,"CLASSIFICATION_TYPE":"U","NORAD_CAT_ID":29236,"ELEMENT_SET_NO":999,"REV_AT_EPOCH":7194,"BSTAR":0,"MEAN_MOTION_DOT":-1.31e-6,"MEAN_MOTION_DDOT":0},{"OBJECT_NAME":"DIRECTV 9S","OBJECT_ID":"2006-043A","EPOCH":"2026-03-06T13:28:37.258176","MEAN_MOTION":1.00272415,"ECCENTRICITY":0.00031769,"INCLINATION":2.1558,"RA_OF_ASC_NODE":82.1749,"ARG_OF_PERICENTER":272.8437,"MEAN_ANOMALY":270.2067,"EPHEMERIS_TYPE":0,"CLASSIFICATION_TYPE":"U","NORAD_CAT_ID":29494,"ELEMENT_SET_NO":999,"REV_AT_EPOCH":5035,"BSTAR":0,"MEAN_MOTION_DOT":-1.17e-6,"MEAN_MOTION_DDOT":0},{"OBJECT_NAME":"GALAXY 17 (G-17)","OBJECT_ID":"2007-016B","EPOCH":"2026-03-06T13:33:14.315328","MEAN_MOTION":1.00271815,"ECCENTRICITY":0.00033269,"INCLINATION":2.712,"RA_OF_ASC_NODE":81.212,"ARG_OF_PERICENTER":269.3014,"MEAN_ANOMALY":292.0775,"EPHEMERIS_TYPE":0,"CLASSIFICATION_TYPE":"U","NORAD_CAT_ID":31307,"ELEMENT_SET_NO":999,"REV_AT_EPOCH":6877,"BSTAR":0,"MEAN_MOTION_DOT":-2.1e-6,"MEAN_MOTION_DDOT":0},{"OBJECT_NAME":"DIRECTV 10","OBJECT_ID":"2007-032A","EPOCH":"2026-03-06T19:14:56.549760","MEAN_MOTION":0.98338107,"ECCENTRICITY":0.00067,"INCLINATION":0.1379,"RA_OF_ASC_NODE":100.1586,"ARG_OF_PERICENTER":275.9384,"MEAN_ANOMALY":110.112,"EPHEMERIS_TYPE":0,"CLASSIFICATION_TYPE":"U","NORAD_CAT_ID":31862,"ELEMENT_SET_NO":999,"REV_AT_EPOCH":4456,"BSTAR":0,"MEAN_MOTION_DOT":-6.4e-7,"MEAN_MOTION_DDOT":0},{"OBJECT_NAME":"INTELSAT 11 (IS-11)","OBJECT_ID":"2007-044B","EPOCH":"2026-03-06T13:16:38.405856","MEAN_MOTION":0.99049951,"ECCENTRICITY":0.000488,"INCLINATION":3.2979,"RA_OF_ASC_NODE":79.9334,"ARG_OF_PERICENTER":207.18,"MEAN_ANOMALY":293.3609,"EPHEMERIS_TYPE":0,"CLASSIFICATION_TYPE":"U","NORAD_CAT_ID":32253,"ELEMENT_SET_NO":999,"REV_AT_EPOCH":6743,"BSTAR":0,"MEAN_MOTION_DOT":4.3e-7,"MEAN_MOTION_DDOT":0},{"OBJECT_NAME":"HORIZONS-2","OBJECT_ID":"2007-063B","EPOCH":"2026-03-06T13:36:06.539904","MEAN_MOTION":1.00271184,"ECCENTRICITY":0.00027799,"INCLINATION":2.3374,"RA_OF_ASC_NODE":81.9254,"ARG_OF_PERICENTER":261.8678,"MEAN_ANOMALY":310.7175,"EPHEMERIS_TYPE":0,"CLASSIFICATION_TYPE":"U","NORAD_CAT_ID":32388,"ELEMENT_SET_NO":999,"REV_AT_EPOCH":6678,"BSTAR":0,"MEAN_MOTION_DOT":-2.57e-6,"MEAN_MOTION_DDOT":0}]
