INTELSAT 10 (IS-10)     
1 26766U 01019A   26065.82171683 -.00000268  00000+0  00000+0 0  9998
2 26766   8.8314  60.2951 0005860 270.3003 262.2612  0.99042240 44560
INTELSAT 902 (IS-902)   
1 26900U 01039A   26065.42894946 -.00000286  00000+0  00000+0 0  9990
2 26900   5.8577  73.0343 0004612 274.1674 281.2767  1.00271793 89667
INTELSAT 904 (IS-904)   
1 27380U 02007A   26064.29173074 -.00000231  00000+0  00000+0 0  9995
2 27380   6.6608  70.4300 0006148 306.2151 219.9159  1.00273205 50729
DIRECTV 5 (TEMPO 1)     
1 27426U 02023A   26065.55972233 -.00000060  00000+0  00000+0 0  9998
2 27426   4.6158  76.5927 0003653 280.5748 258.5092  1.00272675 87099
INTELSAT 905 (IS-905)   
1 27438U 02027A   26064.18725306  .00000088  00000+0  00000+0 0  9999
2 27438   6.4927  71.0512 0003173 279.5390 102.5539  1.00273968 50320
GALAXY 3C (G-3C)        
1 27445U 02030A   26065.42019608 -.00000156  00000+0  00000+0 0  9997
2 27445   3.4690  79.4310 0001165  23.5779 117.5619  1.00271886 45468
INTELSAT 906 (IS-906)   
1 27513U 02041A   26065.59430248  .00000010  00000+0  00000+0 0  9998
2 27513   5.5418  74.1824 0003183 261.3765 106.8622  1.00273167 86000
GALAXY 13 (HORIZONS-1)  
1 27954U 03044A   26065.55183561  .00000129  00000+0  00000+0 0  9991
2 27954   1.1525  85.2612 0002185 263.5411 224.1220  1.00273538 45545
INTELSAT 10-02          
1 28358U 04022A   26065.29617553 -.00000016  00000+0  00000+0 0  9997
2 28358   0.0174 124.5190 0001104 267.8576 237.2435  1.00272108 79529
DIRECTV 8               
1 28659U 05019A   26065.55798898 -.00000003  00000+0  00000+0 0  9995
2 28659   0.0161 113.6976 0003319 247.1626 245.2280  1.00272136 76049
GALAXY 28 (G-28)        
1 28702U 05022A   26065.43354281 -.00000204  00000+0  00000+0 0  9992
2 28702   3.0333  80.2221 0002293 267.8027 305.1144  1.00271561 50945
GALAXY 16 (G-16)        
1 29236U 06023A   26065.56197567 -.00000131  00000+0  00000+0 0  9992
2 29236   0.0384 228.2283 0002678 122.9009 276.4445  1.00273168 71943
DIRECTV 9S              
1 29494U 06043A   26065.56154234 -.00000117  00000+0  00000+0 0  9998
2 29494   2.1558  82.1749 0003176 272.8437 270.2067  1.00272415 50351
GALAXY 17 (G-17)        
1 31307U 07016B   26065.56474902 -.00000210  00000+0  00000+0 0  9996
2 31307   2.7120  81.2120 0003326 269.3014 292.0775  1.00271815 68776
DIRECTV 10              
1 31862U 07032A   26065.80204340 -.00000064  00000+0  00000+0 0  9991
2 31862   0.1379 100.1586 0006700 275.9384 110.1120  0.98338107 44568
INTELSAT 11 (IS-11)     
1 32253U 07044B   26065.55322229  .00000043  00000+0  00000+0 0  9994
2 32253   3.2979  79.9334 0004880 207.1800 293.3609  0.99049951 67438
HORIZONS-2              
1 32388U 07063B   26065.56674236 -.00000257  00000+0  00000+0 0  9991
2 32388   2.3374  81.9254 0002779 261.8678 310.7175  1.00271184 66782
